NORAD_CAT_ID,OBJECT_NAME,OBJECT_TYPE,EPOCH,MEAN_MOTION,ECCENTRICITY,INCLINATION,RA_OF_ASC_NODE,ARG_OF_PERICENTER,MEAN_ANOMALY,BSTAR,MEAN_MOTION_DOT,MEAN_MOTION_DDOT,TLE_LINE0,TLE_LINE1,TLE_LINE2,SEMIMAJOR_AXIS,PERIOD,APOGEE,PERIGEE,DECAYED
53531.0,STARLINK-4487,PAYLOAD,2023-01-25 13:43:19,15.08837115,0.000113,53.2168,147.8169,103.9256,256.1862,1.0745e-05,-1.17e-06,0.0,0 STARLINK-4487,1 53531U 22101E   23025.57175741 -.00000117  00000-0  10745-4 0  9993,2 53531  53.2168 147.8169 0001130 103.9256 256.1862 15.08837115 24196,6917.889,95.438,540.536,538.972,0.0
53531.0,STARLINK-4487,PAYLOAD,2023-01-25 15:18:42,15.08840333,0.0001038,53.2169,147.5199,99.5264,260.5846,4.2705e-05,3.92e-06,0.0,0 STARLINK-4487,1 53531U 22101E   23025.63799495  .00000392  00000-0  42705-4 0  9993,2 53531  53.2169 147.5199 0001038  99.5264 260.5846 15.08840333 24202,6917.879,95.438,540.462,539.026,0.0
53531.0,STARLINK-4487,PAYLOAD,2023-01-26 00:51:01,15.08844253,6.23e-05,53.2165,145.7356,97.3314,262.7749,9.0164e-06,-1.44e-06,0.0,0 STARLINK-4487,1 53531U 22101E   23026.03543240 -.00000144  00000-0  90164-5 0  9992,2 53531  53.2165 145.7356 0000623  97.3314 262.7749 15.08844253 24261,6917.866999999999,95.437,540.163,539.3009999999999,0.0
53531.0,STARLINK-4487,PAYLOAD,2023-01-26 13:34:06,15.08845744,0.0001313,53.2163,143.3567,72.5105,287.6031,0.0001121,1.497e-05,0.0,0 STARLINK-4487,1 53531U 22101E   23026.56535255  .00001497  00000-0  11210-3 0  9991,2 53531  53.2163 143.3567 0001313  72.5105 287.6031 15.08845744 24342,6917.863,95.437,540.636,538.82,0.0
53531.0,STARLINK-4487,PAYLOAD,2023-01-26 15:09:29,15.08852716,0.0001416999999999,53.2167,143.0609,81.8336,278.2816,2.6372e-05,1.32e-06,0.0,0 STARLINK-4487,1 53531U 22101E   23026.63158777  .00000132  00000-0  26372-4 0  9990,2 53531  53.2167 143.0609 0001417  81.8336 278.2816 15.08852716 24359,6917.842,95.437,540.687,538.726,0.0
53531.0,STARLINK-4487,PAYLOAD,2023-01-27 00:41:48,15.08844443,0.0001207,53.2169,141.2745,81.4076,278.7053,7.7653e-05,9.48e-06,0.0,0 STARLINK-4487,1 53531U 22101E   23027.02903128  .00000948  00000-0  77653-4 0  9995,2 53531  53.2169 141.2745 0001207  81.4076 278.7053 15.08844443 24419,6917.866999999999,95.437,540.567,538.8969999999999,0.0
53531.0,STARLINK-4487,PAYLOAD,2023-01-27 11:49:30,15.08837321,0.0001549,53.218,139.1935,93.8754,266.2416,0.00010003,1.304e-05,0.0,0 STARLINK-4487,1 53531U 22101E   23027.49271934  .00001304  00000-0  10003-3 0  9991,2 53531  53.2180 139.1935 0001549  93.8754 266.2416 15.08837321 24487,6917.889,95.438,540.825,538.682,0.0
53531.0,STARLINK-4487,PAYLOAD,2023-01-27 13:24:53,15.08840057,0.0001489,53.2181,138.8966,88.96,271.1563,0.00010491,1.382e-05,0.0,0 STARLINK-4487,1 53531U 22101E   23027.55895814  .00001382  00000-0  10491-3 0  9994,2 53531  53.2181 138.8966 0001489  88.9600 271.1563 15.08840057 24495,6917.88,95.438,540.775,538.715,0.0
53531.0,STARLINK-4487,PAYLOAD,2023-01-27 15:00:17,15.08839567,0.0001222,53.2187,138.5996,88.4172,271.696,0.00014022,1.944e-05,0.0,0 STARLINK-4487,1 53531U 22101E   23027.62519743  .00001944  00000-0  14022-3 0  9994,2 53531  53.2187 138.5996 0001222  88.4172 271.6960 15.08839567 24507,6917.882,95.438,540.592,538.901,0.0
53531.0,STARLINK-4487,PAYLOAD,2023-01-28 00:32:37,15.08827787,0.0001301,53.218,136.8172,92.5059,267.6082,1.0654000000000002e-05,-1.18e-06,0.0,0 STARLINK-4487,1 53531U 22101E   23028.02265085 -.00000118  00000-0  10654-4 0  9997,2 53531  53.2180 136.8172 0001301  92.5059 267.6082 15.08827787 24562,6917.918000000001,95.438,540.683,538.883,0.0
53531.0,STARLINK-4487,PAYLOAD,2023-01-28 11:40:19,15.0881026,0.0001499,53.2156,134.7368,90.6028,269.5136,-0.00029101,-4.913e-05,0.0,0 STARLINK-4487,1 53531U 22101E   23028.48634168 -.00004913  00000-0 -29101-3 0  9993,2 53531  53.2156 134.7368 0001499  90.6028 269.5136 15.08810260 24639,6917.971,95.439,540.873,538.799,0.0
53531.0,STARLINK-4487,PAYLOAD,2023-01-28 13:15:43,15.08812613,0.0001386,53.216,134.4401,91.34,268.7751,-0.00034833,-5.823e-05,0.0,0 STARLINK-4487,1 53531U 22101E   23028.55258140 -.00005823  00000-0 -34833-3 0  9992,2 53531  53.2160 134.4401 0001386  91.3400 268.7751 15.08812613 24645,6917.964,95.439,540.788,538.87,0.0
53531.0,STARLINK-4487,PAYLOAD,2023-01-28 16:26:28,15.0882423,0.0001241,53.2164,133.8394,112.6752,247.4371,-0.00015744,-2.792e-05,0.0,0 STARLINK-4487,1 53531U 22101E   23028.68505540 -.00002792  00000-0 -15744-3 0  9997,2 53531  53.2164 133.8394 0001241 112.6752 247.4371 15.08824230 24662,6917.929,95.439,540.652,538.935,0.0
53531.0,STARLINK-4487,PAYLOAD,2023-01-29 00:23:24,15.08834137,0.0001133,53.2174,132.353,103.7684,256.3435,0.00011451,1.535e-05,0.0,0 STARLINK-4487,1 53531U 22101E   23029.01625354  .00001535  00000-0  11451-3 0  9994,2 53531  53.2174 132.3530 0001133 103.7684 256.3435 15.08834137 24717,6917.898,95.438,540.547,538.98,0.0
53531.0,STARLINK-4487,PAYLOAD,2023-01-29 16:17:14,15.08857226,0.0001303,53.2166,129.3803,88.7682,271.346,0.00046015,7.046e-05,0.0,0 STARLINK-4487,1 53531U 22101E   23029.67864450  .00007046  00000-0  46015-3 0  9995,2 53531  53.2166 129.3803 0001303  88.7682 271.3460 15.08857226 24816,6917.828,95.436,540.594,538.791,0.0
53531.0,STARLINK-4487,PAYLOAD,2023-01-30 06:35:44,15.08838097,0.0001243,53.217,126.704,104.1557,255.9574,0.0005024,7.716e-05,0.0,0 STARLINK-4487,1 53531U 22101E   23030.27481496  .00007716  00000-0  50240-3 0  9997,2 53531  53.2170 126.7040 0001243 104.1557 255.9574 15.08838097 24901,6917.886,95.438,540.611,538.891,0.0
53531.0,STARLINK-4487,PAYLOAD,2023-01-30 11:21:53,15.08839924,0.0001338,53.2172,125.8108,112.6171,247.4963,0.00045028,6.886e-05,0.0,0 STARLINK-4487,1 53531U 22101E   23030.47353293  .00006886  00000-0  45028-3 0  9997,2 53531  53.2172 125.8108 0001338 112.6171 247.4963 15.08839924 24930,6917.881,95.438,540.671,538.82,0.0
53531.0,STARLINK-4487,PAYLOAD,2023-01-31 11:12:39,15.08854216,0.0001389,53.2167,121.3514,100.9791,259.1357,4.4212e-05,4.16e-06,0.0,0 STARLINK-4487,1 53531U 22101E   23031.46712069  .00000416  00000-0  44212-4 0  9995,2 53531  53.2167 121.3514 0001389 100.9791 259.1357 15.08854216 25085,6917.837,95.437,540.663,538.741,0.0
53531.0,STARLINK-4487,PAYLOAD,2023-01-31 12:48:02,15.08858372,0.0001285,53.2166,121.0547,95.9653,264.1486,3.0726e-05,2.01e-06,0.0,0 STARLINK-4487,1 53531U 22101E   23031.53335809  .00000201  00000-0  30726-4 0  9993,2 53531  53.2166 121.0547 0001285  95.9653 264.1486 15.08858372 25099,6917.824,95.436,540.578,538.8,0.0
53531.0,STARLINK-4487,PAYLOAD,2023-01-31 22:20:22,15.08818497,0.000203,53.2174,119.267,90.9223,269.2002,-0.00035745,-5.969e-05,0.0,0 STARLINK-4487,1 53531U 22101E   23031.93082166 -.00005969  00000-0 -35745-3 0  9995,2 53531  53.2174 119.2670 0002030  90.9223 269.2002 15.08818497 25152,6917.946,95.439,541.215,538.407,0.0
53531.0,STARLINK-4487,PAYLOAD,2023-02-01 11:03:28,15.0882404,0.000137,53.2166,116.8916,97.6091,262.5057,-0.00015007,-2.674e-05,0.0,0 STARLINK-4487,1 53531U 22101E   23032.46074222 -.00002674  00000-0 -15007-3 0  9997,2 53531  53.2166 116.8916 0001370  97.6091 262.5057 15.08824040 25238,6917.929,95.439,540.742,538.846,0.0
53531.0,STARLINK-4487,PAYLOAD,2023-02-01 22:11:10,15.08834034,0.0001366,53.2166,114.8101,99.0815,261.0332,9.8854e-05,1.285e-05,0.0,0 STARLINK-4487,1 53531U 22101E   23032.92442166  .00001285  00000-0  98854-4 0  9991,2 53531  53.2166 114.8101 0001366  99.0815 261.0332 15.08834034 25309,6917.899,95.438,540.709,538.819,0.0
53531.0,STARLINK-4487,PAYLOAD,2023-02-02 12:29:38,15.08868967,0.0001383,53.2164,112.1351,93.9199,266.1951,0.0015574,0.00024605,0.0,0 STARLINK-4487,1 53531U 22101E   23033.52058021  .00024605  00000-0  15574-2 0  9998,2 53531  53.2164 112.1351 0001383  93.9199 266.1951 15.08868967 25396,6917.792,95.436,540.614,538.7,0.0
53531.0,STARLINK-4487,PAYLOAD,2023-02-02 22:01:56,15.08866563,0.0001758,53.2165,110.3493,82.1875,277.9317,0.00093135,0.00014576,0.0,0 STARLINK-4487,1 53531U 22101E   23033.91801632  .00014576  00000-0  93135-3 0  9991,2 53531  53.2165 110.3493 0001758  82.1875 277.9317 15.08866563 25454,6917.799,95.436,540.88,538.448,0.0
53531.0,STARLINK-4487,PAYLOAD,2023-02-03 10:45:00,15.08876091,0.0001439,53.2162,107.9717,92.0658,268.0499,0.00074425,0.00011588,0.0,0 STARLINK-4487,1 53531U 22101E   23034.44792517  .00011588  00000-0  74425-3 0  9992,2 53531  53.2162 107.9717 0001439  92.0658 268.0499 15.08876091 25535,6917.77,95.435,540.631,538.64,0.0
53531.0,STARLINK-4487,PAYLOAD,2023-02-03 13:55:46,15.08880346,0.0001433,53.2162,107.377,92.7994,267.3162,0.00083749,0.0001308,0.0,0 STARLINK-4487,1 53531U 22101E   23034.58040165  .00013080  00000-0  83749-3 0  9990,2 53531  53.2162 107.3770 0001433  92.7994 267.3162 15.08880346 25551,6917.757,95.435,540.613,538.631,0.0
53531.0,STARLINK-4487,PAYLOAD,2023-02-04 10:35:47,15.08848443,0.0001646,53.2166,103.512,92.3067,267.8113,-8.9411e-05,-1.711e-05,0.0,0 STARLINK-4487,1 53531U 22101E   23035.44152150 -.00001711  00000-0 -89411-4 0  9997,2 53531  53.2166 103.5120 0001646  92.3067 267.8113 15.08848443 25682,6917.855,95.437,540.858,538.581,0.0
53531.0,STARLINK-4487,PAYLOAD,2023-02-04 13:46:33,15.08855088,0.0001595,53.2165,102.9161,96.7304,263.3869,8.0245e-05,9.9e-06,0.0,0 STARLINK-4487,1 53531U 22101E   23035.57399897  .00000990  00000-0  80245-4 0  9994,2 53531  53.2165 102.9161 0001595  96.7304 263.3869 15.08855088 25709,6917.834,95.437,540.803,538.596,0.0
53531.0,STARLINK-4487,PAYLOAD,2023-02-04 21:43:29,15.08835358,0.0001893,53.2161,101.43,84.4556,275.6652,-0.00024689,-4.215e-05,0.0,0 STARLINK-4487,1 53531U 22101E   23035.90520686 -.00004215  00000-0 -24689-3 0  9998,2 53531  53.2161 101.4300 0001893  84.4556 275.6652 15.08835358 25757,6917.895,95.438,541.069,538.45,0.0
53531.0,STARLINK-4487,PAYLOAD,2023-02-05 04:05:02,15.08835398,0.0001647,53.2169,100.2414,84.7098,275.4082,-0.0001327,-2.399e-05,0.0,0 STARLINK-4487,1 53531U 22101E   23036.17016714 -.00002399  00000-0 -13270-3 0  9995,2 53531  53.2169 100.2414 0001647  84.7098 275.4082 15.08835398 25792,6917.894,95.438,540.899,538.62,0.0
